0 COSMOS 1348 DEB
1 32774U 82029H   13265.10829437 -.00000060  00000-0  00000+0 0  8338
2 32774 072.9378 348.6585 4748241 122.6040 292.2119 01.95711696 61755
0 COSMOS 1348 DEB
1 32774U 82029H   13268.17413742 -.00000072  00000-0  00000+0 0  8340
2 32774 072.9413 348.5556 4741744 122.4807 292.1946 01.95705896 61811
0 COSMOS 1348 DEB
1 32774U 82029H   13269.19621588 -.00000066  00000-0  00000+0 0  8356
2 32774 072.9496 348.5220 4746816 122.4962 292.3157 01.95705906 61837
0 COSMOS 1348 DEB
1 32774U 82029H   13272.26216899 -.00000028  00000-0  00000+0 0  8362
2 32774 072.9414 348.4164 4741414 122.3761 292.3840 01.95705960 61893
0 COSMOS 1348 DEB
1 32774U 82029H   13275.32811619  .00000006  00000-0  00000+0 0  8379
2 32774 072.9497 348.3158 4731404 122.2368 292.4387 01.95707192 61959
0 COSMOS 1348 DEB
1 32774U 82029H   13278.39400471  .00000012  00000-0  00000+0 0  8387
2 32774 072.9330 348.2077 4753436 122.3443 292.6529 01.95710050 62013
